[{"OBJECT_NAME":"HORACIO","OBJECT_ID":"2024-043A","EPOCH":"2026-03-09T21:54:40.867200","MEAN_MOTION":14.98036627,"ECCENTRICITY":0.00104103,"INCLINATION":97.8349,"RA_OF_ASC_NODE":200.1753,"ARG_OF_PERICENTER":2.9871,"MEAN_ANOMALY":357.1411,"EPHEMERIS_TYPE":0,"CLASSIFICATION_TYPE":"U","NORAD_CAT_ID":59098,"ELEMENT_SET_NO":999,"REV_AT_EPOCH":10980,"BSTAR":0.00038157841,"MEAN_MOTION_DOT":4.455e-5,"MEAN_MOTION_DDOT":0},{"OBJECT_NAME":"STARLINK-35788","OBJECT_ID":"2025-280L","EPOCH":"2026-03-09T23:39:18.558144","MEAN_MOTION":14.98331939,"ECCENTRICITY":0.00020887,"INCLINATION":70.0032,"RA_OF_ASC_NODE":333.5703,"ARG_OF_PERICENTER":267.0048,"MEAN_ANOMALY":93.0873,"EPHEMERIS_TYPE":0,"CLASSIFICATION_TYPE":"U","NORAD_CAT_ID":66831,"ELEMENT_SET_NO":999,"REV_AT_EPOCH":1612,"BSTAR":0.00071711575,"MEAN_MOTION_DOT":8.474e-5,"MEAN_MOTION_DDOT":0}]
